STARLINK-5455           
1 55668U 23021AS  26173.50683134  .00000082  00000+0  14641-4 0  9996
2 55668  69.9994 260.2321 0003323 267.8278  92.2500 14.98330170184978
STARLINK-5459           
1 55669U 23021AT  26173.69876130  .00000149  00000+0  20315-4 0  9996
2 55669  69.9992 259.6976 0003370 268.8458  91.2315 14.98332465185005
STARLINK-5423           
1 55670U 23021AU  26173.35244041  .00000092  00000+0  15470-4 0  9994
2 55670  69.9987 260.4934 0003327 271.0147  89.0631 14.98330547184967
STARLINK-5460           
1 55671U 23021AV  26173.66555979  .00000186  00000+0  23417-4 0  9998
2 55671  69.9988 259.9701 0003407 269.4521  90.6248 14.98332290185005
STARLINK-5463           
1 55673U 23021AX  26173.48178646  .00000803  00000+0  75084-4 0  9995
2 55673  69.9986 260.1412 0003440 273.7330  86.3435 14.98331034184982
STARLINK-5462           
1 55674U 23021AY  26173.47343157  .00004388  00000+0  37515-3 0  9994
2 55674  70.0001 260.1118 0003767 269.0524  91.0203 14.98344429184980
STARLINK-5232           
1 55675U 23021AZ  26173.66536762 -.00001688  00000+0 -13372-3 0  9999
2 55675  69.9985 259.5793 0003594 271.9010  88.1738 14.98322708185011
STARLINK-5300           
1 55676U 23021BA  26173.48172806  .00001121  00000+0  10173-3 0  9991
2 55676  69.9993 240.2704 0003569 268.6500  91.4250 14.98334145185473
STARLINK-5324           
1 55677U 23021BB  26173.46904347 -.00001072  00000+0 -82048-4 0  9991
2 55677  69.9985 240.2242 0003458 268.5854  91.4909 14.98334625185474
STARLINK-5592           
1 55741U 23028A   26173.74559808 -.00000119  00000+0 -21569-5 0  9992
2 55741  70.0002 339.6892 0002693 270.2195  89.8656 14.98329262181962
STARLINK-5594           
1 55742U 23028B   26173.74977202  .00000142  00000+0  19667-4 0  9994
2 55742  70.0001 339.7042 0002389 271.2322  88.8563 14.98330616181775
STARLINK-5602           
1 55743U 23028C   26173.75395604 -.00004555  00000+0 -37424-3 0  9990
2 55743  69.9998 339.7195 0003831 266.0351  94.0370 14.98318874181771
STARLINK-5601           
1 55744U 23028D   26173.74995559  .00000776  00000+0  72821-4 0  9995
2 55744  69.9999 339.7048 0003126 262.8817  97.1987 14.98331973181771
STARLINK-5579           
1 55746U 23028F   26173.72053440  .00002050  00000+0  17943-3 0  9999
2 55746  70.0000 339.6023 0002479 264.5665  95.5211 14.98348380181773
STARLINK-5539           
1 55747U 23028G   26173.73725314 -.00000131  00000+0 -31528-5 0  9994
2 55747  70.0004 339.6593 0003052 268.4598  91.6212 14.98326911181770
STARLINK-5580           
1 55748U 23028H   26173.73307609 -.00001316  00000+0 -10252-3 0  9993
2 55748  70.0004 339.6439 0003135 270.1013  89.9787 14.98329269181770
STARLINK-5573           
1 55750U 23028K   26173.46187585  .00000016  00000+0  91029-5 0  9992
2 55750  69.9999 340.3034 0002970 268.9330  91.1488 14.98322275181735
STARLINK-5577           
1 55751U 23028L   26173.74142187 -.00000458  00000+0 -30595-4 0  9995
2 55751  70.0002 339.6744 0003062 263.3881  96.6930 14.98332748181778
STARLINK-5613           
1 55752U 23028M   26173.16977396 -.00000392  00000+0 -25079-4 0  9998
2 55752  69.9996 340.8883 0002997 271.6872  88.3944 14.98333512181698
STARLINK-5617           
1 55753U 23028N   26173.72070331  .00000749  00000+0  70537-4 0  9997
2 55753  69.9996 339.6022 0003581 263.8949  96.1802 14.98339272181776
STARLINK-5612           
1 55754U 23028P   26173.71220357 -.00000049  00000+0  36730-5 0  9994
2 55754  69.9993 339.5709 0002821 270.5068  89.5768 14.98330247181778
STARLINK-5614           
1 55756U 23028R   26173.42846677  .00000019  00000+0  93525-5 0  9994
2 55756  69.9998 340.1855 0002823 268.3131  91.7705 14.98332991181733
STARLINK-5544           
1 55757U 23028S   26173.71639136 -.00000348  00000+0 -21404-4 0  9990
2 55757  69.9993 339.5856 0002301 260.1721  99.9179 14.98323617181772
STARLINK-5072           
1 55758U 23028T   26173.70802819 -.00000034  00000+0  49293-5 0  9998
2 55758  69.9998 339.5568 0002961 269.0954  90.9866 14.98331653181779
STARLINK-5532           
1 55760U 23028V   26173.75809245  .00000019  00000+0  93726-5 0  9998
2 55760  69.9999 339.3306 0002971 268.4703  91.6115 14.98330307181788
STARLINK-5611           
1 55761U 23028W   26173.67042927  .00000139  00000+0  19482-4 0  9995
2 55761  69.9996 319.9461 0003118 266.3417  93.7385 14.98331148182254
STARLINK-5603           
1 55762U 23028X   26173.45746227 -.00000111  00000+0 -14786-5 0  9991
2 55762  69.9996 320.4056 0002950 270.5331  89.5490 14.98329706182221
STARLINK-5593           
1 55763U 23028Y   26173.16560133 -.00000122  00000+0 -23964-5 0  9990
2 55763  69.9998 340.8744 0003097 267.5157  92.5647 14.98330087181691
STARLINK-5499           
1 55764U 23028Z   26173.66192033  .00000716  00000+0  67776-4 0  9991
2 55764  69.9996 319.9156 0003075 266.9199  93.1608 14.98342142182251
STARLINK-5595           
1 55765U 23028AA  26173.66609024 -.00000095  00000+0 -15972-6 0  9990
2 55765  70.0002 319.9308 0002827 270.2455  89.8380 14.98330171182257
