OBJECT_NAME,OBJECT_ID,EPOCH,MEAN_MOTION,ECCENTRICITY,INCLINATION,RA_OF_ASC_NODE,ARG_OF_PERICENTER,MEAN_ANOMALY,EPHEMERIS_TYPE,CLASSIFICATION_TYPE,NORAD_CAT_ID,ELEMENT_SET_NO,REV_AT_EPOCH,BSTAR,MEAN_MOTION_DOT,MEAN_MOTION_DDOT
STARLINK-5455,2023-021AS,2026-06-22T12:09:50.227776,14.98330170,.00033238,69.9994,260.2321,267.8278,92.2500,0,U,55668,999,18497,.14640815E-4,.82E-6,0
STARLINK-5459,2023-021AT,2026-06-22T16:46:12.976320,14.98332465,.00033708,69.9992,259.6976,268.8458,91.2315,0,U,55669,999,18500,.20315492E-4,.149E-5,0
STARLINK-5423,2023-021AU,2026-06-22T08:27:30.851424,14.98330547,.00033273,69.9987,260.4934,271.0147,89.0631,0,U,55670,999,18496,.15469757E-4,.92E-6,0
STARLINK-5460,2023-021AV,2026-06-22T15:58:24.365856,14.98332290,.00034075,69.9988,259.9701,269.4521,90.6248,0,U,55671,999,18500,.2341718E-4,.186E-5,0
STARLINK-5463,2023-021AX,2026-06-22T11:33:46.350144,14.98331034,.00034405,69.9986,260.1412,273.7330,86.3435,0,U,55673,999,18498,.75083543E-4,.803E-5,0
STARLINK-5462,2023-021AY,2026-06-22T11:21:44.487648,14.98344429,.00037671,70.0001,260.1118,269.0524,91.0203,0,U,55674,999,18498,.37514792E-3,.4388E-4,0
STARLINK-5232,2023-021AZ,2026-06-22T15:58:07.762368,14.98322708,.00035949,69.9985,259.5793,271.9010,88.1738,0,U,55675,999,18501,-.13371908E-3,-.1688E-4,0
STARLINK-5300,2023-021BA,2026-06-22T11:33:41.304384,14.98334145,.0003569,69.9993,240.2704,268.6500,91.4250,0,U,55676,999,18547,.10172997E-3,.1121E-4,0
STARLINK-5324,2023-021BB,2026-06-22T11:15:25.355808,14.98334625,.00034583,69.9985,240.2242,268.5854,91.4909,0,U,55677,999,18547,-.82047869E-4,-.1072E-4,0
STARLINK-5592,2023-028A,2026-06-22T17:53:39.674112,14.98329262,.00026935,70.0002,339.6892,270.2195,89.8656,0,U,55741,999,18196,-.2156901E-5,-.119E-5,0
STARLINK-5594,2023-028B,2026-06-22T17:59:40.302528,14.98330616,.00023891,70.0001,339.7042,271.2322,88.8563,0,U,55742,999,18177,.19666942E-4,.142E-5,0
STARLINK-5602,2023-028C,2026-06-22T18:05:41.801856,14.98318874,.0003831,69.9998,339.7195,266.0351,94.0370,0,U,55743,999,18177,-.37424262E-3,-.4555E-4,0
STARLINK-5601,2023-028D,2026-06-22T17:59:56.162976,14.98331973,.00031269,69.9999,339.7048,262.8817,97.1987,0,U,55744,999,18177,.72820991E-4,.776E-5,0
STARLINK-5579,2023-028F,2026-06-22T17:17:34.172160,14.98348380,.00024796,70.0000,339.6023,264.5665,95.5211,0,U,55746,999,18177,.17943136E-3,.205E-4,0
STARLINK-5539,2023-028G,2026-06-22T17:41:38.671296,14.98326911,.00030521,70.0004,339.6593,268.4598,91.6212,0,U,55747,999,18177,-.3152827E-5,-.131E-5,0
STARLINK-5580,2023-028H,2026-06-22T17:35:37.774176,14.98329269,.00031359,70.0004,339.6439,270.1013,89.9787,0,U,55748,999,18177,-.10251603E-3,-.1316E-4,0
STARLINK-5573,2023-028K,2026-06-22T11:05:06.073440,14.98322275,.00029706,69.9999,340.3034,268.9330,91.1488,0,U,55750,999,18173,.9102883E-5,.16E-6,0
STARLINK-5577,2023-028L,2026-06-22T17:47:38.849568,14.98332748,.00030624,70.0002,339.6744,263.3881,96.6930,0,U,55751,999,18177,-.30594721E-4,-.458E-5,0
STARLINK-5613,2023-028M,2026-06-22T04:04:28.470144,14.98333512,.00029974,69.9996,340.8883,271.6872,88.3944,0,U,55752,999,18169,-.25078628E-4,-.392E-5,0
STARLINK-5617,2023-028N,2026-06-22T17:17:48.765984,14.98339272,.00035816,69.9996,339.6022,263.8949,96.1802,0,U,55753,999,18177,.70536995E-4,.749E-5,0
STARLINK-5612,2023-028P,2026-06-22T17:05:34.388448,14.98330247,.00028212,69.9993,339.5709,270.5068,89.5768,0,U,55754,999,18177,.3673025E-5,-.49E-6,0
STARLINK-5614,2023-028R,2026-06-22T10:16:59.528928,14.98332991,.00028234,69.9998,340.1855,268.3131,91.7705,0,U,55756,999,18173,.9352522E-5,.19E-6,0
STARLINK-5544,2023-028S,2026-06-22T17:11:36.213504,14.98323617,.0002301,69.9993,339.5856,260.1721,99.9179,0,U,55757,999,18177,-.21403985E-4,-.348E-5,0
STARLINK-5072,2023-028T,2026-06-22T16:59:33.635616,14.98331653,.00029614,69.9998,339.5568,269.0954,90.9866,0,U,55758,999,18177,.4929263E-5,-.34E-6,0
STARLINK-5532,2023-028V,2026-06-22T18:11:39.187680,14.98330307,.00029715,69.9999,339.3306,268.4703,91.6115,0,U,55760,999,18178,.9372633E-5,.19E-6,0
STARLINK-5611,2023-028W,2026-06-22T16:05:25.088928,14.98331148,.00031182,69.9996,319.9461,266.3417,93.7385,0,U,55761,999,18225,.19481816E-4,.139E-5,0
STARLINK-5603,2023-028X,2026-06-22T10:58:44.740128,14.98329706,.00029506,69.9996,320.4056,270.5331,89.5490,0,U,55762,999,18222,-.1478568E-5,-.111E-5,0
STARLINK-5593,2023-028Y,2026-06-22T03:58:27.954912,14.98330087,.00030971,69.9998,340.8744,267.5157,92.5647,0,U,55763,999,18169,-.2396438E-5,-.122E-5,0
STARLINK-5499,2023-028Z,2026-06-22T15:53:09.916512,14.98342142,.0003075,69.9996,319.9156,266.9199,93.1608,0,U,55764,999,18225,.67776185E-4,.716E-5,0
STARLINK-5595,2023-028AA,2026-06-22T15:59:10.196736,14.98330171,.0002827,70.0002,319.9308,270.2455,89.8380,0,U,55765,999,18225,-.159719E-6,-.95E-6,0
